STARLINK-31912          
1 59656U 24084C   26068.31599313  .00000797  00000+0  38474-4 0  9997
2 59656  43.0049  44.1145 0001097 270.0145  90.0581 15.27585524104314
PHISAT 2                
1 60470U 24149C   26068.78834181  .00008925  00000+0  31421-3 0  9996
2 60470  97.3806 148.6498 0001175 168.6230 191.5037 15.29548631 86792
